ASTROCAST-0401          
1 55110U 23001DF  26068.71172895  .00009750  00000+0  37868-3 0  9995
2 55110  97.5547 160.5206 0008142 188.4231 171.6872 15.26258462176022
STARLINK-33893          
1 64253U 25119W   26068.01363454  .00034589  00000+0  12599-2 0  9992
2 64253  42.9969 311.0709 0001277 280.8883  79.1825 15.27597675 44066
